HIMAWARI-8              
1 40267U 14060A   23243.16854821 -.00000292  00000+0  00000+0 0  9991
2 40267   0.0227 142.9591 0001034  23.1715  14.2974  1.00268635 32621
